{"type": "FeatureCollection", "features": [ {"type": "Feature", "properties": {"norad_id": 34031, "name": "COSMOS 2251 DEB", "group": "cosmos-2251-debris", "lat": 48.51814774173004, "lon": 154.70137733202967, "alt_km": 704.2204349752392, "timestamp": "2025-12-12T16:50:33.539946+00:00", "meta": {"OBJECT_NAME": "COSMOS 2251 DEB", "OBJECT_ID": "1993-036HS", "EPOCH": "2025-12-12T05:20:58.628256", "MEAN_MOTION": 14.59677611, "ECCENTRICITY": 0.00229588, "INCLINATION": 74.0124, "RA_OF_ASC_NODE": 136.6947, "ARG_OF_PERICENTER": 256.9886, "MEAN_ANOMALY": 158.7755, "EPHEMERIS_TYPE": 0, "CLASSIFICATION_TYPE": "U", "NORAD_CAT_ID": 34031, "ELEMENT_SET_NO": 999, "REV_AT_EPOCH": 88558, "BSTAR": 0.0021313837, "MEAN_MOTION_DOT": 0.00010179, "MEAN_MOTION_DDOT": 0}, "tle": {"line1": "1 34031U 93036HS  25346.22290079  .00010179  00000+0  21314-2 0  9993", "line2": "2 34031  74.0124 136.6947 0022958 256.9886 158.7755 14.59677611885586"}}, "geometry": {"type": "Point", "coordinates": [154.70137733202967, 48.51814774173004]}}, {"type": "Feature", "properties": {"norad_id": 34035, "name": "COSMOS 2251 DEB", "group": "cosmos-2251-debris", "lat": -33.48477675583553, "lon": -179.89529778718108, "alt_km": 747.7828741896274, "timestamp": "2025-12-12T16:50:33.539957+00:00", "meta": {"OBJECT_NAME": "COSMOS 2251 DEB", "OBJECT_ID": "1993-036HW", "EPOCH": "2025-12-12T03:09:11.696832", "MEAN_MOTION": 14.51928627, "ECCENTRICITY": 0.00446689, "INCLINATION": 74.0661, "RA_OF_ASC_NODE": 350.2834, "ARG_OF_PERICENTER": 351.8965, "MEAN_ANOMALY": 123.1783, "EPHEMERIS_TYPE": 0, "CLASSIFICATION_TYPE": "U", "NORAD_CAT_ID": 34035, "ELEMENT_SET_NO": 999, "REV_AT_EPOCH": 87957, "BSTAR": 0.0025029789, "MEAN_MOTION_DOT": 0.00010215, "MEAN_MOTION_DDOT": 0}, "tle": {"line1": "1 34035U 93036HW  25346.13138538  .00010215  00000+0  25030-2 0  9998", "line2": "2 34035  74.0661 350.2834 0044668 351.8965 123.1783 14.51928627879577"}}, "geometry": {"type": "Point", "coordinates": [-179.89529778718108, -33.48477675583553]}}, {"type": "Feature", "properties": {"norad_id": 34036, "name": "COSMOS 2251 DEB", "group": "cosmos-2251-debris", "lat": 65.29797264291246, "lon": -69.1888378886306, "alt_km": 573.2416477374345, "timestamp": "2025-12-12T16:50:33.539967+00:00", "meta": {"OBJECT_NAME": "COSMOS 2251 DEB", "OBJECT_ID": "1993-036HX", "EPOCH": "2025-12-12T05:06:48.028032", "MEAN_MOTION": 14.94906189, "ECCENTRICITY": 0.00125244, "INCLINATION": 74.0202, "RA_OF_ASC_NODE": 150.3302, "ARG_OF_PERICENTER": 183.4808, "MEAN_ANOMALY": 176.6291, "EPHEMERIS_TYPE": 0, "CLASSIFICATION_TYPE": "U", "NORAD_CAT_ID": 34036, "ELEMENT_SET_NO": 999, "REV_AT_EPOCH": 88562, "BSTAR": 0.0059220746, "MEAN_MOTION_DOT": 0.00065287, "MEAN_MOTION_DDOT": 0}, "tle": {"line1": "1 34036U 93036HX  25346.21305588  .00065287  00000+0  59221-2 0  9997", "line2": "2 34036  74.0202 150.3302 0012524 183.4808 176.6291 14.94906189885625"}}, "geometry": {"type": "Point", "coordinates": [-69.1888378886306, 65.29797264291246]}}, {"type": "Feature", "properties": {"norad_id": 34037, "name": "COSMOS 2251 DEB", "group": "cosmos-2251-debris", "lat": 2.114079349928789, "lon": -130.09247465076555, "alt_km": 770.0269947019551, "timestamp": "2025-12-12T16:50:33.539978+00:00", "meta": {"OBJECT_NAME": "COSMOS 2251 DEB", "OBJECT_ID": "1993-036HY", "EPOCH": "2025-12-12T05:58:52.916448", "MEAN_MOTION": 14.34664337, "ECCENTRICITY": 0.00520039, "INCLINATION": 74.0522, "RA_OF_ASC_NODE": 51.3402, "ARG_OF_PERICENTER": 101.507, "MEAN_ANOMALY": 259.1928, "EPHEMERIS_TYPE": 0, "CLASSIFICATION_TYPE": "U", "NORAD_CAT_ID": 34037, "ELEMENT_SET_NO": 999, "REV_AT_EPOCH": 87710, "BSTAR": 0.00075464909, "MEAN_MOTION_DOT": 2.143e-05, "MEAN_MOTION_DDOT": 0}, "tle": {"line1": "1 34037U 93036HY  25346.24922357  .00002143  00000+0  75465-3 0  9991", "line2": "2 34037  74.0522  51.3402 0052003 101.5070 259.1928 14.34664337877108"}}, "geometry": {"type": "Point", "coordinates": [-130.09247465076555, 2.114079349928789]}}, {"type": "Feature", "properties": {"norad_id": 34040, "name": "COSMOS 2251 DEB", "group": "cosmos-2251-debris", "lat": 70.84641178859174, "lon": 121.8686720748397, "alt_km": 865.6316854014867, "timestamp": "2025-12-12T16:50:33.539988+00:00", "meta": {"OBJECT_NAME": "COSMOS 2251 DEB", "OBJECT_ID": "1993-036JB", "EPOCH": "2025-12-12T05:57:05.344992", "MEAN_MOTION": 13.68373586, "ECCENTRICITY": 0.03430195, "INCLINATION": 73.9559, "RA_OF_ASC_NODE": 66.6758, "ARG_OF_PERICENTER": 20.1405, "MEAN_ANOMALY": 341.2869, "EPHEMERIS_TYPE": 0, "CLASSIFICATION_TYPE": "U", "NORAD_CAT_ID": 34040, "ELEMENT_SET_NO": 999, "REV_AT_EPOCH": 83593, "BSTAR": 0.00060637853, "MEAN_MOTION_DOT": 7.59e-06, "MEAN_MOTION_DDOT": 0}, "tle": {"line1": "1 34040U 93036JB  25346.24797853  .00000759  00000+0  60638-3 0  9993", "line2": "2 34040  73.9559  66.6758 0343019  20.1405 341.2869 13.68373586835932"}}, "geometry": {"type": "Point", "coordinates": [121.8686720748397, 70.84641178859174]}}, {"type": "Feature", "properties": {"norad_id": 34045, "name": "COSMOS 2251 DEB", "group": "cosmos-2251-debris", "lat": -39.90577565841826, "lon": 144.74892471589078, "alt_km": 802.5053153674071, "timestamp": "2025-12-12T16:50:33.539998+00:00", "meta": {"OBJECT_NAME": "COSMOS 2251 DEB", "OBJECT_ID": "1993-036JG", "EPOCH": "2025-12-12T06:16:16.566240", "MEAN_MOTION": 14.34068398, "ECCENTRICITY": 0.00256382, "INCLINATION": 74.0392, "RA_OF_ASC_NODE": 311.7069, "ARG_OF_PERICENTER": 35.2917, "MEAN_ANOMALY": 73.4125, "EPHEMERIS_TYPE": 0, "CLASSIFICATION_TYPE": "U", "NORAD_CAT_ID": 34045, "ELEMENT_SET_NO": 999, "REV_AT_EPOCH": 88026, "BSTAR": 0.00015833064, "MEAN_MOTION_DOT": 4.18e-06, "MEAN_MOTION_DDOT": 0}, "tle": {"line1": "1 34045U 93036JG  25346.26130285  .00000418  00000+0  15833-3 0  9999", "line2": "2 34045  74.0392 311.7069 0025638  35.2917  73.4125 14.34068398880263"}}, "geometry": {"type": "Point", "coordinates": [144.74892471589078, -39.90577565841826]}}, {"type": "Feature", "properties": {"norad_id": 34046, "name": "COSMOS 2251 DEB", "group": "cosmos-2251-debris", "lat": -28.561591045300336, "lon": -160.4938032495012, "alt_km": 765.3506405106682, "timestamp": "2025-12-12T16:50:33.540008+00:00", "meta": {"OBJECT_NAME": "COSMOS 2251 DEB", "OBJECT_ID": "1993-036JH", "EPOCH": "2025-12-12T02:51:36.008064", "MEAN_MOTION": 14.46464953, "ECCENTRICITY": 0.00745403, "INCLINATION": 74.04, "RA_OF_ASC_NODE": 11.6314, "ARG_OF_PERICENTER": 95.2688, "MEAN_ANOMALY": 321.0882, "EPHEMERIS_TYPE": 0, "CLASSIFICATION_TYPE": "U", "NORAD_CAT_ID": 34046, "ELEMENT_SET_NO": 999, "REV_AT_EPOCH": 87817, "BSTAR": 0.0018075229, "MEAN_MOTION_DOT": 6.709e-05, "MEAN_MOTION_DDOT": 0}, "tle": {"line1": "1 34046U 93036JH  25346.11916676  .00006709  00000+0  18075-2 0  9999", "line2": "2 34046  74.0400  11.6314 0074540  95.2688 321.0882 14.46464953878179"}}, "geometry": {"type": "Point", "coordinates": [-160.4938032495012, -28.561591045300336]}}, {"type": "Feature", "properties": {"norad_id": 34050, "name": "COSMOS 2251 DEB", "group": "cosmos-2251-debris", "lat": 73.86378009000774, "lon": 109.73273620545143, "alt_km": 750.8165646227144, "timestamp": "2025-12-12T16:50:33.540019+00:00", "meta": {"OBJECT_NAME": "COSMOS 2251 DEB", "OBJECT_ID": "1993-036JM", "EPOCH": "2025-12-12T02:55:07.796928", "MEAN_MOTION": 13.96180122, "ECCENTRICITY": 0.02145489, "INCLINATION": 74.0883, "RA_OF_ASC_NODE": 11.1127, "ARG_OF_PERICENTER": 75.5868, "MEAN_ANOMALY": 341.4222, "EPHEMERIS_TYPE": 0, "CLASSIFICATION_TYPE": "U", "NORAD_CAT_ID": 34050, "ELEMENT_SET_NO": 999, "REV_AT_EPOCH": 85423, "BSTAR": 0.00079558791, "MEAN_MOTION_DOT": 1.305e-05, "MEAN_MOTION_DDOT": 0}, "tle": {"line1": "1 34050U 93036JM  25346.12161802  .00001305  00000+0  79559-3 0  9990", "line2": "2 34050  74.0883  11.1127 0214548  75.5868 341.4222 13.96180122854233"}}, "geometry": {"type": "Point", "coordinates": [109.73273620545143, 73.86378009000774]}}, {"type": "Feature", "properties": {"norad_id": 34053, "name": "COSMOS 2251 DEB", "group": "cosmos-2251-debris", "lat": 67.59847099418897, "lon": -73.08227292428211, "alt_km": 834.0687442819053, "timestamp": "2025-12-12T16:50:33.540029+00:00", "meta": {"OBJECT_NAME": "COSMOS 2251 DEB", "OBJECT_ID": "1993-036JQ", "EPOCH": "2025-12-12T04:02:50.831232", "MEAN_MOTION": 13.49159931, "ECCENTRICITY": 0.04221884, "INCLINATION": 73.8442, "RA_OF_ASC_NODE": 243.0916, "ARG_OF_PERICENTER": 31.7344, "MEAN_ANOMALY": 330.8475, "EPHEMERIS_TYPE": 0, "CLASSIFICATION_TYPE": "U", "NORAD_CAT_ID": 34053, "ELEMENT_SET_NO": 999, "REV_AT_EPOCH": 82676, "BSTAR": 0.0010704347, "MEAN_MOTION_DOT": 1.146e-05, "MEAN_MOTION_DDOT": 0}, "tle": {"line1": "1 34053U 93036JQ  25346.16864388  .00001146  00000+0  10704-2 0  9995", "line2": "2 34053  73.8442 243.0916 0422188  31.7344 330.8475 13.49159931826761"}}, "geometry": {"type": "Point", "coordinates": [-73.08227292428211, 67.59847099418897]}}, {"type": "Feature", "properties": {"norad_id": 34056, "name": "COSMOS 2251 DEB", "group": "cosmos-2251-debris", "lat": -52.52200989875858, "lon": -81.66845607165772, "alt_km": 861.5361807541822, "timestamp": "2025-12-12T16:50:33.540040+00:00", "meta": {"OBJECT_NAME": "COSMOS 2251 DEB", "OBJECT_ID": "1993-036JT", "EPOCH": "2025-12-12T07:33:50.806368", "MEAN_MOTION": 14.2055435, "ECCENTRICITY": 0.01241756, "INCLINATION": 74.0593, "RA_OF_ASC_NODE": 77.1361, "ARG_OF_PERICENTER": 125.0839, "MEAN_ANOMALY": 292.8246, "EPHEMERIS_TYPE": 0, "CLASSIFICATION_TYPE": "U", "NORAD_CAT_ID": 34056, "ELEMENT_SET_NO": 999, "REV_AT_EPOCH": 86405, "BSTAR": 0.0015542504, "MEAN_MOTION_DOT": 3.588e-05, "MEAN_MOTION_DDOT": 0}, "tle": {"line1": "1 34056U 93036JT  25346.31517137  .00003588  00000+0  15543-2 0  9990", "line2": "2 34056  74.0593  77.1361 0124175 125.0839 292.8246 14.20554350864056"}}, "geometry": {"type": "Point", "coordinates": [-81.66845607165772, -52.52200989875858]}}]}